OBJECT_NAME,OBJECT_ID,EPOCH,MEAN_MOTION,ECCENTRICITY,INCLINATION,RA_OF_ASC_NODE,ARG_OF_PERICENTER,MEAN_ANOMALY,EPHEMERIS_TYPE,CLASSIFICATION_TYPE,NORAD_CAT_ID,ELEMENT_SET_NO,REV_AT_EPOCH,BSTAR,MEAN_MOTION_DOT,MEAN_MOTION_DDOT
STARLINK-35243,2025-232M,2026-06-06T22:00:03.000096,15.34387660,.00014767,53.1599,49.5461,95.5831,327.1695,0,U,66016,999,586,-.37719314E-3,-.13094E-3,0
STARLINK-35398,2025-232N,2026-06-06T09:52:37.064640,15.34384426,.00009192,53.1592,51.5001,88.9586,271.1522,0,U,66017,999,3702,.11778124E-2,.39609E-3,0
STARLINK-35376,2025-232P,2026-06-06T07:27:17.801280,15.34047574,.00028963,53.1603,52.2815,331.9669,28.1177,0,U,66018,999,3700,-.20574825E-1,-.640523E-2,0
STARLINK-35382,2025-232Q,2026-06-06T22:00:03.000096,15.33563904,.00005553,53.1601,49.4972,118.5885,329.2697,0,U,66019,999,575,-.66372023E-3,-.22146E-3,0
STARLINK-35430,2025-232R,2026-06-06T10:25:09.346080,15.30244746,.0000517,53.1618,51.6357,291.8421,68.2525,0,U,66020,999,3700,.13822427E-2,.40861E-3,0
STARLINK-35432,2025-232S,2026-06-06T10:34:16.004064,15.30237933,.00004761,53.1605,51.6751,47.3524,312.7517,0,U,66021,999,3702,.15626072E-2,.46264E-3,0
STARLINK-35340,2025-232T,2026-06-06T10:16:02.606880,15.30225102,.00006594,53.1608,51.5964,81.5556,278.5519,0,U,66022,999,3702,.86871214E-3,.25478E-3,0
STARLINK-35394,2025-232U,2026-06-06T22:00:03.000096,15.30198346,.00011118,53.1599,49.2554,85.4635,124.1993,0,U,66023,999,587,-.41841189E-3,-.12729E-3,0
STARLINK-35410,2025-232V,2026-06-06T22:00:03.000096,15.34380409,.00010554,53.1584,48.9713,78.8379,274.6537,0,U,66024,999,587,-.30721892E-3,-.10735E-3,0
STARLINK-35280,2025-232W,2026-06-06T09:57:48.555648,15.30221758,.00008029,53.1595,51.5138,95.0038,265.1054,0,U,66025,999,3702,.826218E-3,.24207E-3,0
STARLINK-34812,2025-232X,2026-06-06T10:07:48.109440,15.34390892,.00014945,53.1599,51.5616,79.3661,280.7509,0,U,66026,999,3701,.14429004E-2,.48677E-3,0
STARLINK-35341,2025-232Y,2026-06-05T23:29:22.812864,15.34437239,.00018953,53.1607,53.7633,110.6578,249.4628,0,U,66027,999,3695,.20713673E-2,.70351E-3,0
STARLINK-35339,2025-232Z,2026-06-06T22:00:03.000096,15.34381838,.00013227,53.1602,49.4221,80.8346,40.0772,0,U,66028,999,587,-.35238399E-3,-.12256E-3,0
STARLINK-35399,2025-232AA,2026-06-06T22:00:03.000096,15.33543408,.00012643,53.1590,49.5928,85.3307,309.7104,0,U,66029,999,581,-.42508828E-3,-.14324E-3,0
STARLINK-35431,2025-232AB,2026-06-06T10:13:48.940896,15.34438885,.00005815,53.1599,51.5779,128.9610,231.1445,0,U,66030,999,3702,.14407522E-2,.48679E-3,0
STARLINK-35326,2025-232AC,2026-06-06T23:32:32.267328,15.34442656,.00037674,53.1585,48.6445,105.3765,254.7654,0,U,66031,999,3711,.12295631E-2,.41459E-3,0
STARLINK-35311,2025-232AD,2026-06-06T09:34:25.914720,15.34433795,.00011347,53.1574,51.4015,61.0663,299.0453,0,U,66032,999,3702,.12340019E-2,.41593E-3,0
STARLINK-35552,2025-235A,2026-06-06T18:46:34.722912,15.34440856,.000133,53.1541,187.7405,248.8189,111.2672,0,U,66058,999,3661,.1142559E-2,.38476E-3,0
STARLINK-35560,2025-235B,2026-06-06T19:02:17.124000,15.30228339,.00008149,53.1571,191.4001,190.0696,170.0289,0,U,66059,999,3656,.98986671E-3,.29098E-3,0
STARLINK-35558,2025-235C,2026-06-06T19:40:16.143456,15.30236279,.00010968,53.1592,191.5568,262.4206,97.6671,0,U,66060,999,3656,.97405895E-3,.28633E-3,0
STARLINK-35566,2025-235D,2026-06-05T14:21:58.934592,15.30204862,.0001067,53.1559,196.7345,86.4628,273.6494,0,U,66061,999,3638,.60790678E-3,.17691E-3,0
STARLINK-35421,2025-235E,2026-06-05T18:17:12.133536,15.30199213,.00019808,53.1579,196.3343,56.0943,304.0246,0,U,66062,999,3640,.63552719E-3,.1851E-3,0
STARLINK-35562,2025-235F,2026-06-06T19:52:27.381216,15.30237170,.00006233,53.1594,191.6062,316.9760,43.1192,0,U,66063,999,3656,.11747633E-2,.34636E-3,0
STARLINK-35542,2025-235G,2026-06-06T19:25:04.042848,15.30235011,.0001386,53.1591,191.4931,78.9925,281.1232,0,U,66064,999,3656,.58993202E-3,.17172E-3,0
STARLINK-35375,2025-235H,2026-06-06T19:49:25.351104,15.30226762,.00000552,53.1587,191.5949,50.8273,309.2732,0,U,66065,999,3656,.1103349E-2,.32489E-3,0
STARLINK-35179,2025-235J,2026-06-05T18:26:18.671424,15.30146032,.0001691,53.1566,196.3749,46.9248,313.1894,0,U,66066,999,3640,.22936933E-2,.68084E-3,0
STARLINK-35401,2025-235K,2026-06-05T16:34:01.742016,15.30197421,.00012932,53.1580,196.5937,101.6881,258.4265,0,U,66067,999,3636,.52673248E-3,.15272E-3,0
STARLINK-35422,2025-235L,2026-06-06T18:53:10.118688,15.30186343,.00010442,53.1571,191.3505,78.6729,281.4389,0,U,66068,999,3653,.10397888E-2,.3055E-3,0
STARLINK-35279,2025-235M,2026-06-06T09:19:44.030784,15.30231366,.00009445,53.1569,193.1310,85.2934,274.8174,0,U,66069,999,3650,.11163974E-2,.32884E-3,0
STARLINK-35295,2025-235N,2026-06-06T08:44:56.763168,15.30221291,.00013545,53.1579,193.6848,87.2840,272.8316,0,U,66070,999,3649,.94221458E-3,.27669E-3,0
STARLINK-35323,2025-235P,2026-06-06T09:01:29.773920,15.30228580,.0001218,53.1577,193.0495,89.3484,270.7656,0,U,66071,999,3650,.9264512E-3,.27204E-3,0
STARLINK-35299,2025-235Q,2026-06-06T19:20:32.026272,15.30211114,.00016503,53.1586,191.4704,95.1444,264.9745,0,U,66072,999,3656,.5402775E-3,.15682E-3,0
STARLINK-35274,2025-235R,2026-06-06T19:44:50.517888,15.30209236,.0000334,53.1601,191.5764,43.0087,317.0939,0,U,66073,999,3656,.69597008E-3,.20316E-3,0
STARLINK-35321,2025-235S,2026-06-06T19:35:42.160416,15.30252514,.00002703,53.1593,191.5342,313.0061,47.0917,0,U,66074,999,3656,.11314882E-2,.33357E-3,0
STARLINK-35131,2025-235T,2026-06-05T16:29:25.894464,15.30197218,.00010089,53.1557,196.5698,118.0967,242.0136,0,U,66075,999,3639,.21885028E-2,.65021E-3,0
STARLINK-34801,2025-235U,2026-06-06T19:26:36.458016,15.30240781,.00014974,53.1595,191.4940,77.1672,282.9496,0,U,66076,999,3656,.10770771E-2,.31717E-3,0
STARLINK-35129,2025-235V,2026-06-06T16:09:24.647616,15.30208856,.00011914,53.1578,192.0591,85.1809,274.9327,0,U,66077,999,3654,.82374605E-3,.24124E-3,0
STARLINK-35116,2025-235W,2026-06-06T09:24:17.805600,15.30226631,.00011163,53.1574,193.1508,90.9591,269.1538,0,U,66078,999,3650,.13342863E-2,.39401E-3,0
STARLINK-35402,2025-235X,2026-06-06T09:15:10.500480,15.30224288,.00009685,53.1559,193.1109,99.7632,260.3478,0,U,66079,999,3650,.10707698E-2,.31512E-3,0
STARLINK-35325,2025-235Y,2026-06-06T18:57:45.617184,15.30211165,.00015794,53.1592,191.3663,63.6387,296.4776,0,U,66080,999,3656,.94879639E-3,.27857E-3,0
STARLINK-35403,2025-235Z,2026-06-06T18:55:03.756288,15.31710225,.00012734,53.1566,190.6446,79.9387,280.1758,0,U,66081,999,3657,.11788159E-2,.36405E-3,0
STARLINK-35011,2025-235AA,2026-06-05T13:29:59.019360,15.31692611,.0001579,53.1575,196.5041,66.3163,293.8004,0,U,66082,999,3638,.69339947E-3,.21208E-3,0
STARLINK-35291,2025-235AB,2026-06-06T19:47:52.338048,15.30216794,.00003441,53.1599,191.5828,10.0596,350.0412,0,U,66083,999,3653,.70917511E-3,.20714E-3,0
STARLINK-35379,2025-235AC,2026-06-06T19:29:38.526144,15.30211022,.00002735,53.1597,191.5049,72.7521,287.3510,0,U,66084,999,3656,.60653909E-3,.17654E-3,0
STARLINK-35370,2025-235AD,2026-06-06T19:38:44.991456,15.30229145,.00007913,53.1589,191.5388,260.4444,99.6468,0,U,66085,999,3653,.90703034E-3,.26625E-3,0
STARLINK-35596,2025-236A,2026-06-06T09:50:20.321952,15.30237377,.00011445,53.1581,52.0897,38.4252,321.6830,0,U,66086,999,3652,.1000485E-2,.29424E-3,0
STARLINK-35563,2025-236B,2026-06-05T00:08:07.824768,15.30212889,.00010274,53.1593,58.2567,66.5105,293.6003,0,U,66087,999,3625,.1427291E-2,.4217E-3,0
STARLINK-35461,2025-236C,2026-06-06T10:14:28.568256,15.30239825,.00006592,53.1615,51.4810,126.0830,234.0232,0,U,66088,999,3647,.11650775E-2,.34349E-3,0
STARLINK-35571,2025-236D,2026-06-06T10:28:09.062400,15.30261404,.00006686,53.1609,51.5462,318.2076,41.8873,0,U,66089,999,3653,.12755235E-2,.37682E-3,0
STARLINK-35570,2025-236E,2026-06-06T10:05:22.121088,15.30234236,.00002165,53.1612,51.4465,215.2477,144.8509,0,U,66090,999,3653,.9835605E-3,.28916E-3,0
STARLINK-35532,2025-236F,2026-06-06T09:56:15.844992,15.30220157,.00004527,53.1600,51.4043,112.7852,247.3197,0,U,66091,999,3653,.10041063E-2,.29516E-3,0
STARLINK-35527,2025-236G,2026-06-06T23:44:38.381568,15.34400802,.00010877,53.1571,48.6053,69.9182,290.1938,0,U,66092,999,3662,.13017594E-2,.43864E-3,0
STARLINK-35500,2025-236H,2026-06-06T23:05:09.230496,15.30223236,.00012976,53.1598,49.1326,113.9294,246.1843,0,U,66093,999,3661,.8424109E-3,.24691E-3,0
STARLINK-35528,2025-236J,2026-06-06T10:23:38.071392,15.30224288,.0000979,53.1619,51.5230,70.8727,289.2380,0,U,66094,999,3653,.81539873E-3,.23886E-3,0
STARLINK-35559,2025-236K,2026-06-06T10:19:03.187200,15.30219918,.00012685,53.1589,51.5033,100.5202,259.5942,0,U,66095,999,3653,.82623161E-3,.24206E-3,0
STARLINK-34386,2025-236L,2026-06-05T21:37:30.984384,15.30228626,.00013776,53.1604,53.8910,91.1188,268.9971,0,U,66096,999,3645,.14001724E-2,.41378E-3,0
STARLINK-35613,2025-236M,2026-06-06T10:22:06.279168,15.30248961,.00005247,53.1594,51.5131,132.4489,227.6556,0,U,66097,999,3653,.12499425E-2,.36901E-3,0
STARLINK-34206,2025-236N,2026-06-06T09:49:34.313088,15.34441558,.00012294,53.1581,51.3820,55.9160,304.1959,0,U,66098,999,3652,.12350961E-2,.41641E-3,0
STARLINK-34460,2025-236P,2026-06-06T10:00:49.415040,15.30225886,.00007624,53.1596,51.4223,82.5778,277.5309,0,U,66099,999,3653,.87971593E-3,.25807E-3,0
STARLINK-35609,2025-236Q,2026-06-06T10:16:50.936448,15.34417986,.00010883,53.1612,51.4989,81.9183,278.1944,0,U,66100,999,3647,.88086291E-3,.29519E-3,0
STARLINK-35595,2025-236R,2026-06-06T23:14:27.469536,15.33608568,.00018648,53.1586,49.1756,12.6436,347.4613,0,U,66101,999,3655,.12796515E-2,.42028E-3,0
STARLINK-35599,2025-236S,2026-06-06T23:50:42.103968,15.34432076,.00015205,53.1586,48.6252,81.1002,279.0173,0,U,66102,999,3656,.12625421E-2,.42567E-3,0
STARLINK-35622,2025-236T,2026-06-06T22:00:03.000096,15.34380657,.00010825,53.1601,49.2585,82.2988,73.5667,0,U,66103,999,582,-.26953423E-3,-.9466E-4,0
STARLINK-35452,2025-236U,2026-06-06T09:55:37.718400,15.34425130,.00012099,53.1576,51.4060,89.4474,270.6667,0,U,66104,999,3653,.97513653E-3,.32741E-3,0
